[{"OBJECT_NAME":"STARLINK-2473","OBJECT_ID":"2021-027AR","EPOCH":"2026-03-08T14:46:00.743232","MEAN_MOTION":15.06399874,"ECCENTRICITY":0.00014719,"INCLINATION":53.0552,"RA_OF_ASC_NODE":156.4441,"ARG_OF_PERICENTER":103.0994,"MEAN_ANOMALY":257.016,"EPHEMERIS_TYPE":0,"CLASSIFICATION_TYPE":"U","NORAD_CAT_ID":48131,"ELEMENT_SET_NO":999,"REV_AT_EPOCH":27253,"BSTAR":3.8482686e-5,"MEAN_MOTION_DOT":2.92e-6,"MEAN_MOTION_DDOT":0},{"OBJECT_NAME":"CZ-4C R\/B","OBJECT_ID":"2021-026B","EPOCH":"2026-03-09T16:37:41.696544","MEAN_MOTION":15.16445633,"ECCENTRICITY":0.00393855,"INCLINATION":97.7468,"RA_OF_ASC_NODE":117.371,"ARG_OF_PERICENTER":22.5612,"MEAN_ANOMALY":337.7341,"EPHEMERIS_TYPE":0,"CLASSIFICATION_TYPE":"U","NORAD_CAT_ID":48080,"ELEMENT_SET_NO":999,"REV_AT_EPOCH":27175,"BSTAR":0.00026802982,"MEAN_MOTION_DOT":5.244e-5,"MEAN_MOTION_DDOT":0}]
